[{"OBJECT_NAME":"ORBCOMM FM27","OBJECT_ID":"1998-053G","EPOCH":"2026-03-09T11:53:47.305824","MEAN_MOTION":14.3893044,"ECCENTRICITY":0.00018909,"INCLINATION":45.0048,"RA_OF_ASC_NODE":88.78,"ARG_OF_PERICENTER":259.8961,"MEAN_ANOMALY":100.1675,"EPHEMERIS_TYPE":0,"CLASSIFICATION_TYPE":"U","NORAD_CAT_ID":25481,"ELEMENT_SET_NO":999,"REV_AT_EPOCH":43587,"BSTAR":0.00047812945,"MEAN_MOTION_DOT":1.345e-5,"MEAN_MOTION_DDOT":0},{"OBJECT_NAME":"IRIDIUM 920","OBJECT_ID":"1997-034C","EPOCH":"2026-03-09T15:22:03.704160","MEAN_MOTION":14.41823566,"ECCENTRICITY":0.0009351,"INCLINATION":86.3922,"RA_OF_ASC_NODE":101.8068,"ARG_OF_PERICENTER":289.1786,"MEAN_ANOMALY":70.8402,"EPHEMERIS_TYPE":0,"CLASSIFICATION_TYPE":"U","NORAD_CAT_ID":24871,"ELEMENT_SET_NO":999,"REV_AT_EPOCH":50482,"BSTAR":0.0001267,"MEAN_MOTION_DOT":4.34e-6,"MEAN_MOTION_DDOT":0}]
